[{"OBJECT_NAME":"STARLINK-33673","OBJECT_ID":"2025-053V","EPOCH":"2026-03-09T11:53:48.437664","MEAN_MOTION":15.27557926,"ECCENTRICITY":0.00015406,"INCLINATION":42.9997,"RA_OF_ASC_NODE":235.0792,"ARG_OF_PERICENTER":279.426,"MEAN_ANOMALY":80.6418,"EPHEMERIS_TYPE":0,"CLASSIFICATION_TYPE":"U","NORAD_CAT_ID":63284,"ELEMENT_SET_NO":999,"REV_AT_EPOCH":5636,"BSTAR":0.0012387715,"MEAN_MOTION_DOT":0.0003396,"MEAN_MOTION_DDOT":0},{"OBJECT_NAME":"GEOSCAN 5 (RS92S5)","OBJECT_ID":"2025-155R","EPOCH":"2026-03-09T22:01:07.273920","MEAN_MOTION":15.30265233,"ECCENTRICITY":0.00070849,"INCLINATION":97.4462,"RA_OF_ASC_NODE":37.7456,"ARG_OF_PERICENTER":154.5846,"MEAN_ANOMALY":205.5745,"EPHEMERIS_TYPE":0,"CLASSIFICATION_TYPE":"U","NORAD_CAT_ID":64891,"ELEMENT_SET_NO":999,"REV_AT_EPOCH":6562,"BSTAR":0.00068639307,"MEAN_MOTION_DOT":0.00020065,"MEAN_MOTION_DDOT":0}]
